{
  "norad_id": 63383,
  "name": "STARLINK-33748",
  "history": [
    {
      "epoch": "2026-03-28T22:06:30.971520Z",
      "apogee_km": 475.68650152598275,
      "perigee_km": 474.72854102879865,
      "latitude_deg": 2.362077359161831e-05,
      "longitude_deg": 175.83346559419462,
      "height_km": 476.23889483068865,
      "semi_major_axis_km": 6853.34452127739,
      "eccentricity": 6.989e-05,
      "inclination_deg": 53.1594,
      "raan_deg": 333.7972,
      "arg_perigee_deg": 106.0681,
      "mean_anomaly_deg": 254.0397,
      "mean_motion_rev_day": 15.30202528
    },
    {
      "epoch": "2026-03-29T01:14:37.541760Z",
      "apogee_km": 475.9179155413676,
      "perigee_km": 474.52805413644273,
      "latitude_deg": -3.4554282392114415e-06,
      "longitude_deg": 128.0706130362581,
      "height_km": 476.03712696765564,
      "semi_major_axis_km": 6853.359984838905,
      "eccentricity": 0.0001014,
      "inclination_deg": 53.1607,
      "raan_deg": 333.1905,
      "arg_perigee_deg": 83.027,
      "mean_anomaly_deg": 277.0846,
      "mean_motion_rev_day": 15.30197349
    },
    {
      "epoch": "2026-03-29T23:11:22.175232Z",
      "apogee_km": 475.94280675182927,
      "perigee_km": 474.4491913580141,
      "latitude_deg": 5.506584911713832e-05,
      "longitude_deg": 153.73550513408335,
      "height_km": 475.737580077168,
      "semi_major_axis_km": 6853.332999054921,
      "eccentricity": 0.00010897,
      "inclination_deg": 53.1597,
      "raan_deg": 328.9426,
      "arg_perigee_deg": 61.4529,
      "mean_anomaly_deg": 298.6582,
      "mean_motion_rev_day": 15.30206387
    },
    {
      "epoch": "2026-03-30T14:51:52.694496Z",
      "apogee_km": 475.97046652152676,
      "perigee_km": 474.05131098676065,
      "latitude_deg": 5.4972317210971406e-05,
      "longitude_deg": -85.06741310231175,
      "height_km": 475.70044382364165,
      "semi_major_axis_km": 6853.147888754143,
      "eccentricity": 0.00014002,
      "inclination_deg": 53.1601,
      "raan_deg": 325.9106,
      "arg_perigee_deg": 77.4554,
      "mean_anomaly_deg": 282.6604,
      "mean_motion_rev_day": 15.30268386
    },
    {
      "epoch": "2026-03-30T21:08:05.669088Z",
      "apogee_km": 476.7465286069855,
      "perigee_km": 473.8098402004689,
      "latitude_deg": 4.877790631343049e-06,
      "longitude_deg": 179.40847820916235,
      "height_km": 474.89405812914475,
      "semi_major_axis_km": 6853.415184403727,
      "eccentricity": 0.00021425,
      "inclination_deg": 53.1591,
      "raan_deg": 324.6981,
      "arg_perigee_deg": 29.1458,
      "mean_anomaly_deg": 330.9662,
      "mean_motion_rev_day": 15.30178862
    },
    {
      "epoch": "2026-03-31T08:06:28.777248Z",
      "apogee_km": 476.11304122577985,
      "perigee_km": 474.5122124619411,
      "latitude_deg": 6.607569641951669e-06,
      "longitude_deg": 12.236147497740813,
      "height_km": 476.088320594128,
      "semi_major_axis_km": 6853.44962684386,
      "eccentricity": 0.00011679,
      "inclination_deg": 53.159,
      "raan_deg": 322.5727,
      "arg_perigee_deg": 81.2023,
      "mean_anomaly_deg": 278.911,
      "mean_motion_rev_day": 15.30167327
    },
    {
      "epoch": "2026-04-01T20:09:43.021728Z",
      "apogee_km": 475.9508694394599,
      "perigee_km": 474.41024365274825,
      "latitude_deg": -7.916163501989295e-06,
      "longitude_deg": -177.03229675004803,
      "height_km": 476.14139223924656,
      "semi_major_axis_km": 6853.317556546104,
      "eccentricity": 0.0001124,
      "inclination_deg": 53.1587,
      "raan_deg": 315.5943,
      "arg_perigee_deg": 94.6682,
      "mean_anomaly_deg": 265.4447,
      "mean_motion_rev_day": 15.30211559
    },
    {
      "epoch": "2026-04-02T21:14:33.751968Z",
      "apogee_km": 475.8409369050969,
      "perigee_km": 474.46205525968526,
      "latitude_deg": 1.1244632806890435e-06,
      "longitude_deg": 160.8718046541474,
      "height_km": 476.05296042796266,
      "semi_major_axis_km": 6853.288496082391,
      "eccentricity": 0.0001006,
      "inclination_deg": 53.1583,
      "raan_deg": 310.7398,
      "arg_perigee_deg": 90.2665,
      "mean_anomaly_deg": 269.8451,
      "mean_motion_rev_day": 15.30221292
    },
    {
      "epoch": "2026-04-02T22:48:36.867744Z",
      "apogee_km": 475.87418131375307,
      "perigee_km": 474.47624268874824,
      "latitude_deg": 3.428595528372836e-05,
      "longitude_deg": 136.99127074976815,
      "height_km": 476.0764175084238,
      "semi_major_axis_km": 6853.31221200125,
      "eccentricity": 0.00010199,
      "inclination_deg": 53.1582,
      "raan_deg": 310.4366,
      "arg_perigee_deg": 90.2447,
      "mean_anomaly_deg": 269.8671,
      "mean_motion_rev_day": 15.30213349
    },
    {
      "epoch": "2026-04-03T20:45:22.144032Z",
      "apogee_km": 475.8875401853911,
      "perigee_km": 474.5333187333308,
      "latitude_deg": 1.569908879451157e-05,
      "longitude_deg": 162.65301916919884,
      "height_km": 476.14000481602073,
      "semi_major_axis_km": 6853.347429459361,
      "eccentricity": 9.88e-05,
      "inclination_deg": 53.1585,
      "raan_deg": 306.1883,
      "arg_perigee_deg": 92.6479,
      "mean_anomaly_deg": 267.4635,
      "mean_motion_rev_day": 15.30201554
    },
    {
      "epoch": "2026-04-04T20:16:07.993344Z",
      "apogee_km": 476.03059526582547,
      "perigee_km": 474.2788938959111,
      "latitude_deg": 7.577248367626062e-05,
      "longitude_deg": 164.4452905626219,
      "height_km": 476.26008856024856,
      "semi_major_axis_km": 6853.291744580868,
      "eccentricity": 0.0001278,
      "inclination_deg": 53.1592,
      "raan_deg": 301.6372,
      "arg_perigee_deg": 103.6925,
      "mean_anomaly_deg": 256.4219,
      "mean_motion_rev_day": 15.30220204
    },
    {
      "epoch": "2026-04-05T13:30:44.789760Z",
      "apogee_km": 476.25244001415194,
      "perigee_km": 474.35622986560065,
      "latitude_deg": 5.341865756489613e-05,
      "longitude_deg": -98.25421327143854,
      "height_km": 476.30418610092715,
      "semi_major_axis_km": 6853.4413349398765,
      "eccentricity": 0.00013834,
      "inclination_deg": 53.1597,
      "raan_deg": 298.2992,
      "arg_perigee_deg": 96.1745,
      "mean_anomaly_deg": 263.9414,
      "mean_motion_rev_day": 15.30170104
    },
    {
      "epoch": "2026-04-05T19:46:57.950976Z",
      "apogee_km": 476.2152448891111,
      "perigee_km": 474.3456326118203,
      "latitude_deg": 2.8330632458357513e-06,
      "longitude_deg": 166.22049717458196,
      "height_km": 476.15643076048156,
      "semi_major_axis_km": 6853.417438750465,
      "eccentricity": 0.0001364,
      "inclination_deg": 53.16,
      "raan_deg": 297.0863,
      "arg_perigee_deg": 88.6548,
      "mean_anomaly_deg": 271.4609,
      "mean_motion_rev_day": 15.30178107
    }
  ]
}